ONEWEB-0326             
1 49195U 21083K   22274.83254125  .00000094  00000+0  20627-3 0  9991
2 49195  87.9141 244.4895 0002493  97.1033 263.0383 13.18687480 51509
ONEWEB-0327             
1 49196U 21083L   22274.89294117 -.00000029  00000+0 -10510-3 0  9993
2 49196  87.9139 244.4597 0002496  92.2536 267.8882 13.18681016 51531
ONEWEB-0328             
1 49197U 21083M   22274.86051647  .00000314  00000+0  82619-3 0  9994
2 49197  87.9006 229.2643 0001952  85.9575 274.1778 13.13468209 53119
ONEWEB-0331             
1 49198U 21083N   22275.20728585  .00000050  00000+0  95122-4 0  9997
2 49198  87.9138 244.4400 0002177  91.8927 268.2454 13.18687355 52847
ONEWEB-0333             
1 49199U 21083P   22275.15992955  .00000253  00000+0  65899-3 0  9998
2 49199  87.9007 229.2040 0001855  71.2848 288.8483 13.13471817 54458
ONEWEB-0334             
1 49200U 21083Q   22275.25001157  .00031640  00000+0  32306-2 0  9997
2 49200  87.2101 192.5643 0001472  12.4270 205.2908 14.90473856 58349
ONEWEB-0335             
1 49201U 21083R   22274.85098262  .00000076  00000+0  17247-3 0  9993
2 49201  87.9004 229.2593 0001914  88.5532 271.5816 13.13471901 53136
ONEWEB-0336             
1 49202U 21083S   22274.89544369 -.00000061  00000+0 -20318-3 0  9991
2 49202  87.9006 229.2519 0001955  73.8978 286.2366 13.13467632 53132
ONEWEB-0337             
1 49203U 21083T   22275.14726316  .00000090  00000+0  21059-3 0  9998
2 49203  87.9003 229.2035 0001826  85.9746 274.1592 13.13467418 54463
ONEWEB-0338             
1 49204U 21083U   22274.91667824 -.00053058  00000+0 -54846-2 0  9994
2 49204  87.2161 192.9694 0002960  34.6876 103.4416 14.90524727  1301
ONEWEB-0339             
1 49205U 21083V   22274.83832042 -.00000122  00000+0 -36975-3 0  9990
2 49205  87.9004 229.2637 0001484  79.0124 281.1171 13.13468398 53107
ONEWEB-0340             
1 49206U 21083W   22274.89137574 -.00000008  00000+0 -52122-4 0  9991
2 49206  87.9139 244.4923 0001936  88.7907 271.3447 13.18687258 51481
ONEWEB-0341             
1 49207U 21083X   22274.89914123  .00000132  00000+0  30229-3 0  9994
2 49207  87.9138 244.4235 0001260 116.5279 243.5982 13.18685836 51507
ONEWEB-0342             
1 49208U 21083Y   22274.91667824 -.00053231  00000+0 -55008-2 0  9992
2 49208  87.2125 192.7810 0002974  36.9268 273.5767 14.90537452  1305
ONEWEB-0343             
1 49209U 21083Z   22275.19955683 -.00002308  00000+0 -58898-2 0  9996
2 49209  87.9155 244.3978 0001069 111.6571 248.4675 13.18663618 52888
ONEWEB-0344             
1 49210U 21083AA  22274.88272940  .00000081  00000+0  18727-3 0  9993
2 49210  87.9006 229.2589 0002055  81.2525 278.8837 13.13471104 53118
ONEWEB-0345             
1 49211U 21083AB  22274.82454440 -.00000140  00000+0 -41909-3 0  9991
2 49211  87.9009 229.2554 0002018 102.5098 257.6257 13.13468602 53115
ONEWEB-0346             
1 49212U 21083AC  22274.44698134  .00000111  00000+0  24929-3 0  9999
2 49212  87.9137 244.5414 0002355  94.3051 265.8350 13.18686711 51430
ONEWEB-0348             
1 49213U 21083AD  22275.25001157  .00029788  00000+0  30405-2 0  9999
2 49213  87.2148 192.7837 0002143  25.0636 227.9382 14.90494643 58347
ONEWEB-0350             
1 49214U 21083AE  22275.13881116  .00018156  00000+0  49652-1 0  9998
2 49214  87.9006 229.2191 0002548  98.0903 262.0515 13.13375127 54481
ONEWEB-0351             
1 49215U 21083AF  22274.91667824 -.00048967  00000+0 -50605-2 0  9998
2 49215  87.2079 192.5807 0001574  28.3045 356.5241 14.90514977  1304
ONEWEB-0352             
1 49216U 21083AG  22274.89118202  .00000000  00000+0 -34989-4 0  9991
2 49216  87.9007 229.2522 0001829  70.0354 290.0972 13.13470915 53245
ONEWEB-0354             
1 49217U 21083AH  22274.91667824 -.00055240  00000+0 -57116-2 0  9996
2 49217  87.2134 192.8161 0002196  56.4958 226.1537 14.90527883  1300
ONEWEB-0355             
1 49218U 21083AJ  22274.92291943 -.00000279  00000+0 -79850-3 0  9995
2 49218  87.9004 229.2507 0001496  81.8378 278.2921 13.13469212 54424
ONEWEB-0357             
1 49219U 21083AK  22275.25001157  .00032102  00000+0  32752-2 0  9996
2 49219  87.2128 192.6860 0003131  29.8465 181.3453 14.90500361 58343
ONEWEB-0332             
1 49279U 21090A   22274.91667824 -.00043328  00000+0 -11741+0 0  9997
2 49279  87.9130 198.9493 0001685  54.9978 228.6144 13.14529648  1300
ONEWEB-0347             
1 49280U 21090B   22275.25001157  .00016895  00000+0  63201-2 0  9996
2 49280  87.6996 188.3475 0004165 121.0455 129.3563 14.31688411 51518
ONEWEB-0349             
1 49281U 21090C   22275.25001157  .00004376  00000+0  10726-1 0  9991
2 49281  87.9226 183.8445 0001847  89.1546 357.3817 13.20772679 52393
ONEWEB-0353             
1 49282U 21090D   22274.91667824 -.00042697  00000+0 -11569+0 0  9997
2 49282  87.9080 198.9761 0001966  60.0687 263.5518 13.14530809  1307
ONEWEB-0356             
1 49283U 21090E   22275.25001157  .00004402  00000+0  10789-1 0  9992
2 49283  87.9277 183.8302 0002875  84.2941  12.2984 13.20773677 52391
ONEWEB-0358             
1 49284U 21090F   22275.25001157  .00005187  00000+0  12718-1 0  9998
2 49284  87.9315 183.7301 0002112  86.8718 249.8484 13.20768231 53122
ONEWEB-0359             
1 49285U 21090G   22275.25001157  .00005044  00000+0  12367-1 0  9991
2 49285  87.9314 183.7678 0001382  93.5203 253.1595 13.20772917 53094
ONEWEB-0360             
1 49286U 21090H   22275.25001157  .00004453  00000+0  10915-1 0  9992
2 49286  87.9309 183.7802 0001911  76.8857 309.7525 13.20776955 52417
ONEWEB-0361             
1 49287U 21090J   22275.25001157  .00004466  00000+0  10948-1 0  9993
2 49287  87.9283 183.8129 0001949  76.6460  30.0870 13.20768117 52408
ONEWEB-0362             
1 49288U 21090K   22274.91667824 -.00036711  00000+0 -92075-1 0  9996
2 49288  87.9291 214.0669 0002161  69.5503 182.8929 13.19744929  1307
ONEWEB-0363             
1 49289U 21090L   22275.25001157  .00004404  00000+0  10795-1 0  9997
2 49289  87.9281 183.8113 0002165  81.2761 315.2808 13.20771593 52410
ONEWEB-0364             
1 49290U 21090M   22275.25001157  .00015686  00000+0  63235-2 0  9991
2 49290  87.6937 188.5952 0003589 101.5971  42.7443 14.27881373 52727
ONEWEB-0365             
1 49291U 21090N   22274.91667824 -.00036869  00000+0 -92466-1 0  9998
2 49291  87.9208 214.1375 0001789  80.1555 142.9184 13.19749207  1309
ONEWEB-0366             
1 49292U 21090P   22274.91667824 -.00042613  00000+0 -11546+0 0  9991
2 49292  87.9077 198.9615 0002117  66.3927 277.2510 13.14531218  1306
ONEWEB-0367             
1 49293U 21090Q   22275.25001157  .00004400  00000+0  10784-1 0  9996
2 49293  87.9254 183.8505 0001958  67.6387 338.9489 13.20774335 52404
ONEWEB-0368             
1 49294U 21090R   22275.25001157  .00017269  00000+0  69676-2 0  9999
2 49294  87.6961 188.5879 0003168 135.1936 123.4487 14.27831880 52737
ONEWEB-0369             
1 49295U 21090S   22274.91667824 -.00036804  00000+0 -92303-1 0  9991
2 49295  87.9240 214.1110 0002078  70.4445 167.2194 13.19749168  1305
ONEWEB-0370             
1 49296U 21090T   22275.25001157  .00004623  00000+0  11332-1 0  9996
2 49296  87.9298 183.8164 0002016  73.2943 303.2529 13.20777031 52443
ONEWEB-0371             
1 49297U 21090U   22274.91667824 -.00036979  00000+0 -92750-1 0  9992
2 49297  87.9291 214.0488 0001939  81.7992 126.6153 13.19745350  1300
ONEWEB-0372             
1 49298U 21090V   22275.25001157  .00004293  00000+0  10522-1 0  9991
2 49298  87.9289 183.8132 0002207  62.2776 354.3567 13.20771266 52414
ONEWEB-0373             
1 49299U 21090W   22275.25001157 -.00029000  00000+0 -10935-1 0  9995
2 49299  87.6959 188.2635 0004710 165.4571 295.7417 14.31711244 52812
ONEWEB-0374             
1 49300U 21090X   22274.91667824 -.00043442  00000+0 -11773+0 0  9994
2 49300  87.9099 198.9804 0002074  70.2646 332.9983 13.14523161  1305
ONEWEB-0375             
1 49301U 21090Y   22275.25001157  .00004847  00000+0  11883-1 0  9992
2 49301  87.9340 183.7531 0002588  89.1084 267.4741 13.20773913 53095
ONEWEB-0376             
1 49302U 21090Z   22274.91667824 -.00036900  00000+0 -92551-1 0  9992
2 49302  87.9234 214.1199 0001888  68.4170 147.3228 13.19745297  1300
ONEWEB-0377             
1 49303U 21090AA  22275.25001157  .00004689  00000+0  11495-1 0  9997
2 49303  87.9295 183.7593 0001701  77.7718 288.7517 13.20773262 53079
ONEWEB-0378             
1 49304U 21090AB  22275.25001157  .00005397  00000+0  13234-1 0  9998
2 49304  87.9248 183.8592 0002070  65.7826  90.7826 13.20772191 52371
ONEWEB-0379             
1 49305U 21090AC  22274.91667824 -.00044205  00000+0 -11980+0 0  9997
2 49305  87.9097 198.9606 0001988  69.8439   3.6997 13.14528054  1308
ONEWEB-0380             
1 49306U 21090AD  22274.91667824 -.00036848  00000+0 -92419-1 0  9990
2 49306  87.9231 214.1262 0001773  84.3749 146.0808 13.19745080  1304
ONEWEB-0381             
1 49307U 21090AE  22275.25001157  .00004302  00000+0  10542-1 0  9995
2 49307  87.9294 183.8357 0002075  75.8316 350.8969 13.20776571 52403
ONEWEB-0382             
1 49308U 21090AF  22275.25001157  .00004598  00000+0  11270-1 0  9992
2 49308  87.9287 183.8214 0002360  81.9613  34.6020 13.20772398 52401
ONEWEB-0383             
1 49309U 21090AG  22274.91667824 -.00044987  00000+0 -12194+0 0  9996
2 49309  87.9125 198.9058 0002215  72.6109  30.7229 13.14521805  1301
ONEWEB-0384             
1 49310U 21090AH  22275.25001157  .00004763  00000+0  11677-1 0  9990
2 49310  87.9268 183.8316 0002699  87.5283  39.0004 13.20773637 52415
ONEWEB-0385             
1 49311U 21090AJ  22275.25001157  .00005099  00000+0  12503-1 0  9993
2 49311  87.9294 183.8143 0002377  77.7264  68.8519 13.20770459 52393
ONEWEB-0386             
1 49312U 21090AK  22275.25001157 -.00005742  00000+0 -14162-1 0  9994
2 49312  87.9253 183.8251 0002404  72.5162   4.0120 13.20780030 52408
